{
  "type": "FeatureCollection",
  "features": [
    {
      "type": "Feature",
      "properties": {
        "norad_id": 34478,
        "name": "COSMOS 2251 DEB",
        "group": "cosmos-2251-debris",
        "lat": 28.5286690301509,
        "lon": 18.985555743477804,
        "alt_km": 564.055163844796,
        "timestamp": "2025-12-11T05:00:26.702854+00:00",
        "meta_object_name": "COSMOS 2251 DEB",
        "meta_object_id": "1993-036TX",
        "meta_epoch": "2025-12-10T11:54:41.684256",
        "meta_mean_motion": 15.07704921,
        "meta_eccentricity": 0.00352945,
        "meta_inclination": 74.0399,
        "meta_ra_of_asc_node": 11.4997,
        "meta_arg_of_pericenter": 232.9868,
        "meta_mean_anomaly": 251.9768,
        "meta_ephemeris_type": 0,
        "meta_classification_type": "U",
        "meta_norad_cat_id": 34478,
        "meta_element_set_no": 999,
        "meta_rev_at_epoch": 88939,
        "meta_bstar": 0.003908605,
        "meta_mean_motion_dot": 0.00060996,
        "meta_mean_motion_ddot": 0,
        "tle_line1": "1 34478U 93036TX  25344.49631579  .00060996  00000+0  39086-2 0  9996",
        "tle_line2": "2 34478  74.0399  11.4997 0035294 232.9868 251.9768 15.07704921889393"
      },
      "geometry": {
        "type": "Point",
        "coordinates": [
          18.985555743477804,
          28.5286690301509
        ]
      }
    },
    {
      "type": "Feature",
      "properties": {
        "norad_id": 34481,
        "name": "COSMOS 2251 DEB",
        "group": "cosmos-2251-debris",
        "lat": 38.08086475098229,
        "lon": 69.27187646508058,
        "alt_km": 829.8352842109243,
        "timestamp": "2025-12-11T05:00:26.702864+00:00",
        "meta_object_name": "COSMOS 2251 DEB",
        "meta_object_id": "1993-036UA",
        "meta_epoch": "2025-12-10T22:56:54.193920",
        "meta_mean_motion": 14.32539887,
        "meta_eccentricity": 0.00707673,
        "meta_inclination": 73.9802,
        "meta_ra_of_asc_node": 56.7242,
        "meta_arg_of_pericenter": 231.3894,
        "meta_mean_anomaly": 307.0085,
        "meta_ephemeris_type": 0,
        "meta_classification_type": "U",
        "meta_norad_cat_id": 34481,
        "meta_element_set_no": 999,
        "meta_rev_at_epoch": 87423,
        "meta_bstar": 0.0010698354,
        "meta_mean_motion_dot": 2.958e-05,
        "meta_mean_motion_ddot": 0,
        "tle_line1": "1 34481U 93036UA  25344.95618280  .00002958  00000+0  10698-2 0  9997",
        "tle_line2": "2 34481  73.9802  56.7242 0070767 231.3894 307.0085 14.32539887874231"
      },
      "geometry": {
        "type": "Point",
        "coordinates": [
          69.27187646508058,
          38.08086475098229
        ]
      }
    },
    {
      "type": "Feature",
      "properties": {
        "norad_id": 34482,
        "name": "COSMOS 2251 DEB",
        "group": "cosmos-2251-debris",
        "lat": 8.66874895740057,
        "lon": -130.94147748749077,
        "alt_km": 660.9343536197612,
        "timestamp": "2025-12-11T05:00:26.702873+00:00",
        "meta_object_name": "COSMOS 2251 DEB",
        "meta_object_id": "1993-036UB",
        "meta_epoch": "2025-12-10T16:01:51.254112",
        "meta_mean_motion": 14.69110343,
        "meta_eccentricity": 0.0045195,
        "meta_inclination": 74.0366,
        "meta_ra_of_asc_node": 227.6036,
        "meta_arg_of_pericenter": 287.9526,
        "meta_mean_anomaly": 102.2461,
        "meta_ephemeris_type": 0,
        "meta_classification_type": "U",
        "meta_norad_cat_id": 34482,
        "meta_element_set_no": 999,
        "meta_rev_at_epoch": 88157,
        "meta_bstar": 0.0028493,
        "meta_mean_motion_dot": 0.0001702,
        "meta_mean_motion_ddot": 0,
        "tle_line1": "1 34482U 93036UB  25344.66795433  .00017020  00000+0  28493-2 0  9990",
        "tle_line2": "2 34482  74.0366 227.6036 0045195 287.9526 102.2461 14.69110343881575"
      },
      "geometry": {
        "type": "Point",
        "coordinates": [
          -130.94147748749077,
          8.66874895740057
        ]
      }
    },
    {
      "type": "Feature",
      "properties": {
        "norad_id": 34544,
        "name": "COSMOS 2251 DEB",
        "group": "cosmos-2251-debris",
        "lat": 18.590506618038287,
        "lon": 20.93895595739516,
        "alt_km": 969.5566304303029,
        "timestamp": "2025-12-11T05:00:26.702883+00:00",
        "meta_object_name": "COSMOS 2251 DEB",
        "meta_object_id": "1993-036UE",
        "meta_epoch": "2025-12-10T23:12:13.180608",
        "meta_mean_motion": 13.54661255,
        "meta_eccentricity": 0.03842448,
        "meta_inclination": 73.9145,
        "meta_ra_of_asc_node": 206.8996,
        "meta_arg_of_pericenter": 235.6686,
        "meta_mean_anomaly": 190.1829,
        "meta_ephemeris_type": 0,
        "meta_classification_type": "U",
        "meta_norad_cat_id": 34544,
        "meta_element_set_no": 999,
        "meta_rev_at_epoch": 82858,
        "meta_bstar": 0.00034892096,
        "meta_mean_motion_dot": 3.59e-06,
        "meta_mean_motion_ddot": 0,
        "tle_line1": "1 34544U 93036UE  25344.96681922  .00000359  00000+0  34892-3 0  9997",
        "tle_line2": "2 34544  73.9145 206.8996 0384244 235.6686 190.1829 13.54661255828581"
      },
      "geometry": {
        "type": "Point",
        "coordinates": [
          20.93895595739516,
          18.590506618038287
        ]
      }
    },
    {
      "type": "Feature",
      "properties": {
        "norad_id": 34546,
        "name": "COSMOS 2251 DEB",
        "group": "cosmos-2251-debris",
        "lat": -24.66540205700336,
        "lon": -115.5150359691217,
        "alt_km": 730.4949912123129,
        "timestamp": "2025-12-11T05:00:26.702893+00:00",
        "meta_object_name": "COSMOS 2251 DEB",
        "meta_object_id": "1993-036UG",
        "meta_epoch": "2025-12-10T21:21:56.474208",
        "meta_mean_motion": 14.45398318,
        "meta_eccentricity": 0.00219001,
        "meta_inclination": 74.031,
        "meta_ra_of_asc_node": 252.6344,
        "meta_arg_of_pericenter": 326.5593,
        "meta_mean_anomaly": 151.6542,
        "meta_ephemeris_type": 0,
        "meta_classification_type": "U",
        "meta_norad_cat_id": 34546,
        "meta_element_set_no": 999,
        "meta_rev_at_epoch": 87999,
        "meta_bstar": 0.0010002242,
        "meta_mean_motion_dot": 3.504e-05,
        "meta_mean_motion_ddot": 0,
        "tle_line1": "1 34546U 93036UG  25344.89023697  .00003504  00000+0  10002-2 0  9991",
        "tle_line2": "2 34546  74.0310 252.6344 0021900 326.5593 151.6542 14.45398318879992"
      },
      "geometry": {
        "type": "Point",
        "coordinates": [
          -115.5150359691217,
          -24.66540205700336
        ]
      }
    },
    {
      "type": "Feature",
      "properties": {
        "norad_id": 34547,
        "name": "COSMOS 2251 DEB",
        "group": "cosmos-2251-debris",
        "lat": 14.030694546048409,
        "lon": 107.80896398652557,
        "alt_km": 666.6922312513834,
        "timestamp": "2025-12-11T05:00:26.702903+00:00",
        "meta_object_name": "COSMOS 2251 DEB",
        "meta_object_id": "1993-036UH",
        "meta_epoch": "2025-12-10T09:22:16.076640",
        "meta_mean_motion": 14.72244082,
        "meta_eccentricity": 0.001775,
        "meta_inclination": 74.0302,
        "meta_ra_of_asc_node": 105.2971,
        "meta_arg_of_pericenter": 184.9707,
        "meta_mean_anomaly": 175.1292,
        "meta_ephemeris_type": 0,
        "meta_classification_type": "U",
        "meta_norad_cat_id": 34547,
        "meta_element_set_no": 999,
        "meta_rev_at_epoch": 88487,
        "meta_bstar": 0.0032528696,
        "meta_mean_motion_dot": 0.00020618,
        "meta_mean_motion_ddot": 0,
        "tle_line1": "1 34547U 93036UH  25344.39046385  .00020618  00000+0  32529-2 0  9999",
        "tle_line2": "2 34547  74.0302 105.2971 0017750 184.9707 175.1292 14.72244082884878"
      },
      "geometry": {
        "type": "Point",
        "coordinates": [
          107.80896398652557,
          14.030694546048409
        ]
      }
    },
    {
      "type": "Feature",
      "properties": {
        "norad_id": 34553,
        "name": "COSMOS 2251 DEB",
        "group": "cosmos-2251-debris",
        "lat": -7.946963605231998,
        "lon": -167.4873085264145,
        "alt_km": 701.7546799639331,
        "timestamp": "2025-12-11T05:00:26.702913+00:00",
        "meta_object_name": "COSMOS 2251 DEB",
        "meta_object_id": "1993-036UP",
        "meta_epoch": "2025-12-10T01:37:10.286688",
        "meta_mean_motion": 14.57681637,
        "meta_eccentricity": 0.00194332,
        "meta_inclination": 74.0245,
        "meta_ra_of_asc_node": 196.9747,
        "meta_arg_of_pericenter": 274.5627,
        "meta_mean_anomaly": 211.0651,
        "meta_ephemeris_type": 0,
        "meta_classification_type": "U",
        "meta_norad_cat_id": 34553,
        "meta_element_set_no": 999,
        "meta_rev_at_epoch": 88057,
        "meta_bstar": 0.0014771503,
        "meta_mean_motion_dot": 6.735e-05,
        "meta_mean_motion_ddot": 0,
        "tle_line1": "1 34553U 93036UP  25344.06748017  .00006735  00000+0  14772-2 0  9995",
        "tle_line2": "2 34553  74.0245 196.9747 0019433 274.5627 211.0651 14.57681637880572"
      },
      "geometry": {
        "type": "Point",
        "coordinates": [
          -167.4873085264145,
          -7.946963605231998
        ]
      }
    }
  ]
}